NORAD_CAT_ID,OBJECT_NAME,OBJECT_TYPE,EPOCH,MEAN_MOTION,ECCENTRICITY,INCLINATION,RA_OF_ASC_NODE,ARG_OF_PERICENTER,MEAN_ANOMALY,BSTAR,MEAN_MOTION_DOT,MEAN_MOTION_DDOT,TLE_LINE0,TLE_LINE1,TLE_LINE2,SEMIMAJOR_AXIS,PERIOD,APOGEE,PERIGEE,DECAYED
56790.0,STARLINK-6345,PAYLOAD,2024-05-04 04:51:47,14.98323163,0.0001774,70.0041,205.1252,250.9232,109.1735,3.5152e-05,3.27e-06,0.0,0 STARLINK-6345,1 56790U 23078Z   24125.20263549  .00000327  00000-0  35152-4 0  9994,2 56790  70.0041 205.1252 0001774 250.9232 109.1735 14.98323163 52890,6950.214,96.107,573.312,570.846,0.0
56790.0,STARLINK-6345,PAYLOAD,2024-05-04 12:52:29,14.98309637,0.0002474,70.0026,204.2841,262.7217,97.3661,-0.00014705,-1.846e-05,0.0,0 STARLINK-6345,1 56790U 23078Z   24125.53645100 -.00001846  00000-0 -14705-3 0  9996,2 56790  70.0026 204.2841 0002474 262.7217  97.3661 14.98309637 52941,6950.256,96.108,573.84,570.401,0.0
56790.0,STARLINK-6345,PAYLOAD,2024-05-05 04:53:49,14.98323905,0.0002884,70.0013,202.599,268.9113,91.1715,-0.00019652,-2.437e-05,0.0,0 STARLINK-6345,1 56790U 23078Z   24126.20404799 -.00002437  00000-0 -19652-3 0  9991,2 56790  70.0013 202.5990 0002884 268.9113  91.1715 14.98323905 53049,6950.212,96.107,574.081,570.072,0.0
56790.0,STARLINK-6345,PAYLOAD,2024-05-05 14:30:37,14.98328833,0.0002529,70.0016,201.5905,246.658,113.4313,-0.00017347,-2.162e-05,0.0,0 STARLINK-6345,1 56790U 23078Z   24126.60460484 -.00002162  00000-0 -17347-3 0  9992,2 56790  70.0016 201.5905 0002529 246.6580 113.4313 14.98328833 52848,6950.196,96.107,573.819,570.304,0.0
56790.0,STARLINK-6345,PAYLOAD,2024-05-05 22:31:17,14.98333858,0.0003018,70.0009,200.7473,270.3205,89.7608,-9.8475e-05,-1.268e-05,0.0,0 STARLINK-6345,1 56790U 23078Z   24126.93840014 -.00001268  00000-0 -98475-4 0  9997,2 56790  70.0009 200.7473 0003018 270.3205  89.7608 14.98333858 52893,6950.181,96.107,574.144,569.948,0.0
56790.0,STARLINK-6345,PAYLOAD,2024-05-06 12:56:29,14.98330731,0.0002979,70.0007,199.2323,268.7558,91.3259,0.00028015,3.251e-05,0.0,0 STARLINK-6345,1 56790U 23078Z   24127.53923368  .00003251  00000-0  28015-3 0  9992,2 56790  70.0007 199.2323 0002979 268.7558  91.3259 14.98330731 53242,6950.191,96.107,574.126,569.985,0.0
56790.0,STARLINK-6345,PAYLOAD,2024-05-06 14:32:37,14.98332346,0.000297,70.0008,199.064,268.8114,91.2704,0.00029199,3.393e-05,0.0,0 STARLINK-6345,1 56790U 23078Z   24127.60599232  .00003393  00000-0  29199-3 0  9990,2 56790  70.0008 199.0640 0002970 268.8114  91.2704 14.98332346 52992,6950.186,96.107,574.115,569.986,0.0
56790.0,STARLINK-6345,PAYLOAD,2024-05-06 22:33:18,14.98330605,0.0002951,70.0008,198.2222,268.8628,91.2193,0.00020651,2.372e-05,0.0,0 STARLINK-6345,1 56790U 23078Z   24127.93979530  .00002372  00000-0  20651-3 0  9999,2 56790  70.0008 198.2222 0002951 268.8628  91.2193 14.98330605 53043,6950.191,96.107,574.107,570.005,0.0
56790.0,STARLINK-6345,PAYLOAD,2024-05-07 12:58:30,14.98336306,0.0002973,70.0008,196.708,269.0255,91.0564,0.00012926,1.45e-05,0.0,0 STARLINK-6345,1 56790U 23078Z   24128.54063205  .00001450  00000-0  12926-3 0  9992,2 56790  70.0008 196.7080 0002973 269.0255  91.0564 14.98336306 53393,6950.173,96.107,574.105,569.972,0.0
56790.0,STARLINK-6345,PAYLOAD,2024-05-07 14:34:38,14.98337998,0.0002947,70.0008,196.5396,269.3184,90.7637,0.00012018,1.342e-05,0.0,0 STARLINK-6345,1 56790U 23078Z   24128.60739102  .00001342  00000-0  12018-3 0  9997,2 56790  70.0008 196.5396 0002947 269.3184  90.7637 14.98337998 53144,6950.168,96.106,574.081,569.985,0.0
56790.0,STARLINK-6345,PAYLOAD,2024-05-08 13:00:31,14.98370328,0.0002201,70.0013,194.1832,268.8434,91.2473,-0.00063966,-7.724e-05,0.0,0 STARLINK-6345,1 56790U 23078Z   24129.54202632 -.00007724  00000-0 -63966-3 0  9994,2 56790  70.0013 194.1832 0002201 268.8434  91.2473 14.98370328 53546,6950.068,96.104,573.463,570.403,0.0
56790.0,STARLINK-6345,PAYLOAD,2024-05-08 14:36:38,14.98375501,0.0002219,70.0014,194.0155,266.8425,93.248,-0.000733,-8.838e-05,0.0,0 STARLINK-6345,1 56790U 23078Z   24129.60878349 -.00008838  00000-0 -73300-3 0  9995,2 56790  70.0014 194.0155 0002219 266.8425  93.2480 14.98375501 53291,6950.052,96.104,573.459,570.375,0.0
56790.0,STARLINK-6345,PAYLOAD,2024-05-08 21:01:11,14.98342612,0.0002782,70.0015,193.342,269.3083,90.7757,-0.00021771,-2.69e-05,0.0,0 STARLINK-6345,1 56790U 23078Z   24129.87583076 -.00002690  00000-0 -21771-3 0  9999,2 56790  70.0015 193.3420 0002782 269.3083  90.7757 14.98342612 53333,6950.154,96.106,573.952,570.085,0.0
56790.0,STARLINK-6345,PAYLOAD,2024-05-09 05:01:52,14.98333536,0.0002956,70.0009,192.5001,271.5021,88.5799,-5.6712e-05,-7.7e-06,0.0,0 STARLINK-6345,1 56790U 23078Z   24130.20963084 -.00000770  00000-0 -56712-4 0  9990,2 56790  70.0009 192.5001 0002956 271.5021  88.5799 14.98333536 53642,6950.182,96.107,574.101,569.992,0.0
56790.0,STARLINK-6345,PAYLOAD,2024-05-09 13:02:32,14.98335036,0.0002845,70.0011,191.6587,269.2749,90.8084,-3.1014e-05,-4.63e-06,0.0,0 STARLINK-6345,1 56790U 23078Z   24130.54342818 -.00000463  00000-0 -31014-4 0  9990,2 56790  70.0011 191.6587 0002845 269.2749  90.8084 14.98335036 53439,6950.177,96.107,574.02,570.065,0.0
56790.0,STARLINK-6345,PAYLOAD,2024-05-10 13:04:33,14.98325709,0.0002894,70.0012,189.1346,269.1082,90.9746,-4.9726e-05,-6.86e-06,0.0,0 STARLINK-6345,1 56790U 23078Z   24131.54483474 -.00000686  00000-0 -49726-4 0  9991,2 56790  70.0012 189.1346 0002894 269.1082  90.9746 14.98325709 53845,6950.206,96.107,574.083,570.06,0.0
56790.0,STARLINK-6345,PAYLOAD,2024-05-11 05:05:52,14.98353903,0.0002638,70.0013,187.4514,261.9558,98.1301,0.00024261,2.805e-05,0.0,0 STARLINK-6345,1 56790U 23078Z   24132.21240847  .00002805  00000-0  24261-3 0  9990,2 56790  70.0013 187.4514 0002638 261.9558  98.1301 14.98353903 53943,6950.119,96.105,573.817,570.151,0.0
56790.0,STARLINK-6345,PAYLOAD,2024-05-11 11:30:22,14.98373161,0.0002917,70.001,186.7777,270.9304,89.1521,0.00043479,5.104e-05,0.0,0 STARLINK-6345,1 56790U 23078Z   24132.47942607  .00005104  00000-0  43479-3 0  9998,2 56790  70.0010 186.7777 0002917 270.9304  89.1521 14.98373161 53988,6950.059,96.104,573.952,569.897,0.0
56790.0,STARLINK-6345,PAYLOAD,2024-05-11 13:06:29,14.98379587,0.0002985,70.001,186.6095,270.9728,89.1089,0.00049966,5.881e-05,0.0,0 STARLINK-6345,1 56790U 23078Z   24132.54617847  .00005881  00000-0  49966-3 0  9990,2 56790  70.0010 186.6095 0002985 270.9728  89.1089 14.98379587 53993,6950.04,96.104,573.979,569.83,0.0
56790.0,STARLINK-6345,PAYLOAD,2024-05-11 21:07:12,14.98339051,0.0003015,70.0005,185.7675,267.2463,92.8351,0.00010673,1.181e-05,0.0,0 STARLINK-6345,1 56790U 23078Z   24132.88000895  .00001181  00000-0  10673-3 0  9998,2 56790  70.0005 185.7675 0003015 267.2463  92.8351 14.98339051 53783,6950.165,96.106,574.125,569.934,0.0
56790.0,STARLINK-6345,PAYLOAD,2024-05-12 05:07:55,14.98313697,0.0003291,70.0,184.9251,263.6085,96.4699,-0.00018772,-2.331e-05,0.0,0 STARLINK-6345,1 56790U 23078Z   24133.21383199 -.00002331  00000-0 -18772-3 0  9995,2 56790  70.0000 184.9251 0003291 263.6085  96.4699 14.98313697 54093,6950.243,96.108,574.396,569.821,0.0
56790.0,STARLINK-6345,PAYLOAD,2024-05-12 11:32:32,14.98254506,0.0003152,70.0001,184.2524,268.6673,91.4125,-0.00080444,-9.66e-05,0.0,0 STARLINK-6345,1 56790U 23078Z   24133.48093359 -.00009660  00000-0 -80444-3 0  9997,2 56790  70.0001 184.2524 0003152 268.6673  91.4125 14.98254506 54131,6950.426,96.112,574.482,570.101,0.0
56790.0,STARLINK-6345,PAYLOAD,2024-05-12 13:08:40,14.982538,0.0003133,70.0002,184.0843,268.5782,91.5019,-0.00079967,-9.603e-05,0.0,0 STARLINK-6345,1 56790U 23078Z   24133.54769668 -.00009603  00000-0 -79967-3 0  9992,2 56790  70.0002 184.0843 0003133 268.5782  91.5019 14.98253800 53883,6950.429,96.112,574.471,570.116,0.0
56790.0,STARLINK-6345,PAYLOAD,2024-05-12 21:09:19,14.98283808,0.0003535,70.0009,183.2422,260.8697,99.2062,-0.0005275,-6.374e-05,0.0,0 STARLINK-6345,1 56790U 23078Z   24133.88147936 -.00006374  00000-0 -52750-3 0  9990,2 56790  70.0009 183.2422 0003535 260.8697  99.2062 14.98283808 53930,6950.336,96.11,574.658,569.744,0.0
56790.0,STARLINK-6345,PAYLOAD,2024-05-13 05:09:57,14.98331944,0.0002875,70.0006,182.4011,257.8833,102.2004,-0.00030478,-3.728e-05,0.0,0 STARLINK-6345,1 56790U 23078Z   24134.21525163 -.00003728  00000-0 -30478-3 0  9993,2 56790  70.0006 182.4011 0002875 257.8833 102.2004 14.98331944 54247,6950.187,96.107,574.05,570.054,0.0
56790.0,STARLINK-6345,PAYLOAD,2024-05-13 13:10:37,14.98336882,0.000295,70.0004,181.5594,263.4615,96.6208,-0.00021138,-2.615e-05,0.0,0 STARLINK-6345,1 56790U 23078Z   24134.54904642 -.00002615  00000-0 -21138-3 0  9999,2 56790  70.0004 181.5594 0002950 263.4615  96.6208 14.98336882 54031,6950.172,96.107,574.087,569.986,0.0
56790.0,STARLINK-6345,PAYLOAD,2024-05-14 11:36:30,14.98321133,0.000316,70.0001,179.2034,259.0964,100.984,0.00028281,3.282e-05,0.0,0 STARLINK-6345,1 56790U 23078Z   24135.48368586  .00003282  00000-0  28281-3 0  9999,2 56790  70.0001 179.2034 0003160 259.0964 100.9840 14.98321133 54172,6950.22,96.108,574.282,569.889,0.0
56790.0,STARLINK-6345,PAYLOAD,2024-05-15 05:13:58,14.98341112,0.0003182,69.9998,177.3519,258.7697,101.3104,0.00029995,3.489e-05,0.0,0 STARLINK-6345,1 56790U 23078Z   24136.21803982  .00003489  00000-0  29995-3 0  9997,2 56790  69.9998 177.3519 0003182 258.7697 101.3104 14.98341112 54542,6950.159,96.106,574.235,569.812,0.0
56790.0,STARLINK-6345,PAYLOAD,2024-05-15 13:14:38,14.98352792,0.0003123,70.0,176.5108,257.7059,102.375,0.00021836,2.515e-05,0.0,0 STARLINK-6345,1 56790U 23078Z   24136.55183024  .00002515  00000-0  21836-3 0  9997,2 56790  70.0000 176.5108 0003123 257.7059 102.3750 14.98352792 54331,6950.122,96.106,574.158,569.817,0.0
56790.0,STARLINK-6345,PAYLOAD,2024-05-16 05:15:58,14.98345096,0.0002903,70.0008,174.8291,251.7413,108.343,1.1826e-05,4.8e-07,0.0,0 STARLINK-6345,1 56790U 23078Z   24137.21943212  .00000048  00000-0  11826-4 0  9992,2 56790  70.0008 174.8291 0002903 251.7413 108.3430 14.98345096 54695,6950.146,96.106,574.029,569.994,0.0
